1 41884U 16078A   16366.97537065 +.00001615 +00000-0 +90276-4 0  9992
2 41884 034.9608 341.8361 0017112 291.4617 068.4278 15.13256871002494
1 41885U 16078B   16366.97124439 +.00001701 +00000-0 +94051-4 0  9991
2 41885 034.9544 341.7963 0015558 289.1670 070.7357 15.13637719002494
1 41886U 16078C   16366.97296326 +.00001676 +00000-0 +93061-4 0  9998
2 41886 034.9652 341.8227 0016392 288.8416 071.0508 15.13479710002497
1 41887U 16078D   16366.97633215 +.00001623 +00000-0 +90924-4 0  9998
2 41887 034.9579 341.8415 0017508 292.1513 067.7344 15.13168066002490
1 41888U 16078E   16366.97453501 +.00001637 +00000-0 +91269-4 0  9995
2 41888 034.9547 341.8233 0016939 291.0358 068.8543 15.13333726002485
1 41889U 16078F   16366.96980428 +.00001662 +00000-0 +91627-4 0  9994
2 41889 034.9629 341.7932 0015087 286.7875 073.1182 15.13771042002485
1 41890U 16078G   16366.96893915 +.00001611 +00000-0 +88649-4 0  9994
2 41890 034.9568 341.7805 0014667 287.4432 072.4680 15.13849526002486
1 41891U 16078H   16366.96803592 +.00001667 +00000-0 +91474-4 0  9998
2 41891 034.9595 341.7748 0014352 288.1158 071.7997 15.13934190002493
